[{"OBJECT_NAME":"CHEOPS","OBJECT_ID":"2019-092B","EPOCH":"2026-03-09T21:50:28.376160","MEAN_MOTION":14.61888226,"ECCENTRICITY":0.00115482,"INCLINATION":98.1514,"RA_OF_ASC_NODE":258.5528,"ARG_OF_PERICENTER":54.8909,"MEAN_ANOMALY":305.3373,"EPHEMERIS_TYPE":0,"CLASSIFICATION_TYPE":"U","NORAD_CAT_ID":44874,"ELEMENT_SET_NO":999,"REV_AT_EPOCH":33139,"BSTAR":0.00010870283,"MEAN_MOTION_DOT":4.97e-6,"MEAN_MOTION_DDOT":0},{"OBJECT_NAME":"CZ-6A DEB","OBJECT_ID":"2024-140PV","EPOCH":"2026-03-09T14:16:39.790272","MEAN_MOTION":14.5266159,"ECCENTRICITY":0.0086875,"INCLINATION":89.0456,"RA_OF_ASC_NODE":286.1226,"ARG_OF_PERICENTER":252.4456,"MEAN_ANOMALY":106.7247,"EPHEMERIS_TYPE":0,"CLASSIFICATION_TYPE":"U","NORAD_CAT_ID":61127,"ELEMENT_SET_NO":999,"REV_AT_EPOCH":8191,"BSTAR":0.00063098,"MEAN_MOTION_DOT":2.73e-5,"MEAN_MOTION_DDOT":0}]
